IRIDIUM 155             
1 43573U 18061E   24008.58572198  .00000310  00000+0  10349-3 0  9990
2 43573  86.3946  68.8952 0002331  89.3127 270.8336 14.34219373285705
IRIDIUM 154             
1 43574U 18061F   24009.61322293  .00000388  00000+0  13150-3 0  9993
2 43574  86.3950  68.5557 0002283  99.5572 260.5882 14.34217642285903
IRIDIUM 163             
1 43575U 18061G   24009.59419380  .00000353  00000+0  11891-3 0  9997
2 43575  86.3948  68.5064 0002226  95.2630 264.8820 14.34219180285873
IRIDIUM 156             
1 43576U 18061H   24009.56882198  .00000328  00000+0  10990-3 0  9997
2 43576  86.3947  68.5233 0001952  92.1138 268.0281 14.34219414285861
IRIDIUM 164             
1 43577U 18061J   24009.54979587  .00000347  00000+0  11670-3 0  9992
2 43577  86.3948  68.5578 0001951  97.5915 262.5502 14.34219459285905
IRIDIUM 159             
1 43578U 18061K   24009.58785201  .00000344  00000+0  11572-3 0  9993
2 43578  86.3947  68.4973 0002289  97.4084 262.7372 14.34219249285874
IRIDIUM 180             
1 43922U 19002A   24009.51758034  .00000340  00000+0  11418-3 0  9994
2 43922  86.3970   5.4013 0002201  92.9398 267.2050 14.34216893261511
IRIDIUM 176             
1 43923U 19002B   24009.52976437  .00001359  00000+0  21170-3 0  9992
2 43923  86.6100   5.4264 0002503  89.5787 270.5717 14.72245062268355
IRIDIUM 168             
1 43924U 19002C   24009.51124291  .00000388  00000+0  13143-3 0  9997
2 43924  86.3973   5.4560 0002225  92.3491 267.7960 14.34220261261459
IRIDIUM 173             
1 43925U 19002D   24009.49855675  .00000369  00000+0  12483-3 0  9997
2 43925  86.3971   5.3865 0002323  90.6670 269.4792 14.34220320261430
IRIDIUM 169             
1 43926U 19002E   24009.56434964  .00000453  00000+0  14139-3 0  9994
2 43926  86.4210  36.9654 0004431  60.7252 299.4388 14.38621166262320
IRIDIUM 172             
1 43927U 19002F   24009.49221736  .00000368  00000+0  12436-3 0  9991
2 43927  86.3971   5.3944 0002154  92.3342 267.8100 14.34219954261444
IRIDIUM 175             
1 43928U 19002G   24009.45577410  .00001359  00000+0  21158-3 0  9993
2 43928  86.1520 347.6370 0002471  87.4386 272.7113 14.72246964268330
IRIDIUM 171             
1 43929U 19002H   24009.40341410  .00000365  00000+0  12321-3 0  9996
2 43929  86.3981   5.6393 0002094  90.4284 269.7152 14.34220968261428
IRIDIUM 170             
1 43930U 19002J   24009.46790415  .00001276  00000+0  19844-3 0  9996
2 43930  86.6099   5.4569 0002364  87.0622 273.0865 14.72245858268359
IRIDIUM 167             
1 43931U 19002K   24009.53661807  .00000387  00000+0  13114-3 0  9993
2 43931  86.3971   5.3904 0002073  89.8758 270.2675 14.34219927261442
IRIDIUM 181             
1 56726U 23068S   24009.60969449  .00000460  00000+0  13005-3 0  9998
2 56726  86.8610  51.3412 0001571  85.2366 274.9014 14.43576221 34118
IRIDIUM 177             
1 56727U 23068T   24009.55022478  .00001728  00000+0  22391-3 0  9991
2 56727  86.1963  31.1379 0002303  95.9515 264.1969 14.80224366 34761
IRIDIUM 174             
1 56728U 23068U   24009.54476426  .00001730  00000+0  22415-3 0  9997
2 56728  86.1969  31.2312 0002508  95.9008 264.2499 14.80231197 34769
IRIDIUM 178             
1 56729U 23068V   24009.60698127  .00001602  00000+0  20740-3 0  9996
2 56729  86.5764  41.0997 0002261  94.6720 265.4759 14.80226830 34779
IRIDIUM 179             
1 56730U 23068W   24009.60158993  .00001571  00000+0  20341-3 0  9992
2 56730  86.6773  43.2260 0002323  95.9630 264.1856 14.80227095 34770
